*Overview-Section*
 "" , "" , "" , "Tr-CAD Ver0.0.7.0" , "2026/05/30" , "" , "サンプル" , "" ,  , 
 , SAMPLE-PC , 2026/05/30 12:00:00
*Section-End*
*SurveyData-Section*
*Section-End*
*Point-Section*
 S0 , 0 , 0 , 1 , 0 , 0 , 0
 T1 , 100 , 100 , 0 , 0 , 0 , 0
 T2 , 150 , 110 , 0 , 0 , 0 , 0
 T3 , 160 , 160 , 0 , 0 , 0 , 0
 T4 , 110 , 150 , 0 , 0 , 0 , 0
 P1 , 130 , 130 , 0 , 0 , 0 , 0
*Section-End*
*Line-Section*
 L1 , K , T1 , T2 , 0 , 0 , 1 , , 0
 L2 , K , T2 , T3 , 0 , 0 , 1 , , 0
 L3 , K , T3 , T4 , 0 , 0 , 1 , , 0
 L4 , K , T4 , T1 , 0 , 0 , 1 , , 0
*Section-End*
*Circle-Section*
 C1 , F , 130 , 130 , 8 , 0 , 0 , 0 , , 0 , 130 , 130
*Section-End*
*Moji-Section*
 M1 , F , "サンプル区画" , 135 , 132 , 200 , 0 , 0 , 0
*Section-End*
*Hedge-Section*
 H1 , 100 , 100 , 160 , 160 , 0
*Section-End*
*Pline-Section*
 PL1 , 0 , 0
  *PlinePoint-Section*
   105 , 105
   145 , 108
   140 , 145
  *PlinePoint-End*
*Section-End*
*Block-Section*
*Section-End*
*Insert-Section*
*Section-End*
*Photo-Section*
*Section-End*
*Level-Section*
*Section-End*
*Mawariken-Section*
*Section-End*
